[{"OBJECT_NAME":"STARLINK-2635","OBJECT_ID":"2021-038C","EPOCH":"2026-03-09T04:23:02.281056","MEAN_MOTION":15.30190803,"ECCENTRICITY":0.00011052,"INCLINATION":53.1597,"RA_OF_ASC_NODE":0.4872,"ARG_OF_PERICENTER":106.6604,"MEAN_ANOMALY":253.4518,"EPHEMERIS_TYPE":0,"CLASSIFICATION_TYPE":"U","NORAD_CAT_ID":48355,"ELEMENT_SET_NO":999,"REV_AT_EPOCH":26700,"BSTAR":-0.00012431176,"MEAN_MOTION_DOT":-4.038e-5,"MEAN_MOTION_DDOT":0},{"OBJECT_NAME":"OBJECT Y","OBJECT_ID":"2023-085Y","EPOCH":"2026-03-09T22:38:54.992256","MEAN_MOTION":15.32500153,"ECCENTRICITY":0.00063298,"INCLINATION":97.4849,"RA_OF_ASC_NODE":180.8653,"ARG_OF_PERICENTER":67.4431,"MEAN_ANOMALY":292.748,"EPHEMERIS_TYPE":0,"CLASSIFICATION_TYPE":"U","NORAD_CAT_ID":57026,"ELEMENT_SET_NO":999,"REV_AT_EPOCH":15160,"BSTAR":0.00065512761,"MEAN_MOTION_DOT":0.00020524,"MEAN_MOTION_DDOT":0}]
